{"type":"Feature","properties":{"source":"Natural Earth 1:110m public-domain data","note":"major land polygons simplified for rotating-globe rendering"},"geometry":{"type":"MultiPolygon","coordinates":[[[[-78.18209570993864,8.319182440621773],[-80.8864009264208,7.220541490096537],[-87.48940873894713,13.297534898323931],[-103.50098954955808,18.29229462327885],[-114.77645117883503,31.79953217216115],[-109.43339230023292,23.1855876734287],[-112.18203589562148,24.738412787367167],[-124.39807000000002,40.313199999999995],[-124.68721008300781,48.18443298339855],[-122.58735999999993,47.09600000000006],[-122.84000000000003,49.000000000000114],[-134.07806292029608,58.12306753196691],[-147.11437394914665,60.884656073644635],[-151.7163927886833,59.15582103131993],[-150.62111080625704,61.2844249538544],[-158.43332129619714,55.99415355083852],[-164.78556922102717,54.40417308208214],[-157.04167497457698,58.91888458926172],[-165.3463877024748,60.50749563256238],[-160.77777767641481,64.78860382756642],[-168.11056006576715,65.66999705673675],[-161.67777442121013,66.11611969671242],[-166.76444068099605,68.35887685817966],[-156.58082455139808,71.35776357694175],[-96.12588,67.29338],[-94.23282000000002,69.06903000000001],[-96.39115,71.19482],[-93.88997,71.76015],[-87.35017,67.19872],[-85.52197,69.88211],[-81.22019999999999,68.66567],[-94.24153,60.89865],[-92.29702999999999,57.08709],[-82.27285,55.14832],[-79.91289,51.208420000000004],[-79.82958,54.66772],[-76.54137,56.53423000000001],[-78.10687,62.31964000000001],[-73.83988000000001,62.4438],[-67.64976,58.21206],[-64.58352000000001,60.33558],[-55.75632,53.27036],[-60.03309000000001,50.24277],[-66.39905,50.228970000000004],[-71.10458,46.82171],[-65.05626,49.232780000000005],[-64.47219,46.238490000000006],[-59.80287,45.9204],[-65.36406000000001,43.54523],[-64.42549,45.29204],[-67.13741,45.13753],[-75.94022999999999,37.21689000000009],[-76.35000000000002,39.14999999999998],[-75.72748999999999,35.55074000000013],[-81.33629000000002,31.44049000000001],[-80.38103000000001,25.20616000000001],[-86.39999999999992,30.40000000000009],[-97.36999999999995,27.380000000000052],[-95.90088497595997,18.82802419684873],[-87.05189022494807,21.5435431991383],[-88.93061275913527,15.887273464415076],[-83.41038123242038,15.270902818253774],[-82.20758643261097,8.9955752628901],[-76.83667395700357,8.638749497914716],[-71.75409013536864,12.437303168177309],[-71.69564409044654,9.072263088411248],[-69.94324459499683,12.162307033736099],[-61.880946010980196,10.715625311725104],[-57.14743648947689,5.973149929219161],[-51.31714636901086,4.203490505383954],[-48.58449662941659,-1.2378052710050014],[-35.23538896334756,-5.464937432247805],[-40.94475623225061,-21.93731698983781],[-47.64897233742066,-24.885199069927722],[-53.806425950726535,-34.39681487400223],[-58.42707414410459,-33.909454441057576],[-56.78828528504836,-36.901571547189334],[-65.11803524439158,-41.06431487402891],[-63.458059048095876,-42.563138116222405],[-67.29379391139247,-45.55189625425519],[-65.98508826360079,-48.133289076531135],[-71.00633216010525,-53.83325204220132],[-74.94676347522517,-52.262753588419],[-75.64439531116545,-46.64764332457207],[-72.7178039211798,-42.38335580827898],[-74.33194312203261,-43.22495818458442],[-70.16441972520605,-19.756468194256165],[-81.24999630402642,-6.136834405139183],[-80.93365902375172,-1.057454522306358],[-77.12768978545526,3.8496361352653565],[-78.18209570993864,8.319182440621773]]],[[[-102.09329000000002,69.11962000000011],[-113.31320000000005,68.53553999999997],[-117.34000000000003,69.9600000000001],[-112.41610000000003,70.36637999999999],[-119.40199000000001,71.55858999999998],[-107.51645000000002,73.23597999999998],[-102.09329000000002,69.11962000000011]]],[[[-9.004793667018674,4.8324185245922],[-16.61383826340328,12.170911159712702],[-17.06342322434257,20.999752102130827],[-5.92999426921989,35.75998810479399],[9.509993523810607,37.349994411766545],[10.339658644256616,33.78574168551532],[19.08641,30.26639],[21.54298,32.843200000000024],[33.7734,30.967460000000003],[36.160821567537,36.65060557712833],[27.641186557737317,36.65882212986274],[26.17078535330433,39.463612168936464],[33.51328291192746,42.01896006933731],[41.55408410011066,41.53565623632757],[36.6754600000001,45.244690000000105],[39.121200000000044,47.26336000000009],[33.882511020652885,44.361478583344194],[30.74874881360921,46.583100084004116],[27.67389773937805,42.57789236100622],[28.806438429486743,41.05496206314856],[22.626298862404724,40.25656118423916],[24.040011020613576,37.655014553369426],[22.490028110451078,36.4100001083774],[19.540027296637106,41.71998607031276],[13.141606479554296,45.73669179949542],[12.589237094786455,44.09136587175446],[18.48024702319543,40.16886627863981],[16.100960727613,37.9858987493342],[8.88894616052687,44.36633616797951],[3.1004105973526634,43.075200507167054],[-2.146452602538119,36.67414419203729],[-8.898856980820327,36.86880931248078],[-9.392883673530648,43.0266246608127],[-1.384225226232985,44.022610378590116],[-4.592349819344776,48.68416046812699],[8.121706170289485,53.52779246684429],[8.543437534223415,57.11000275331695],[10.580005730846125,57.73001658795485],[10.93946699386845,54.00869334575259],[19.660640089606403,54.42608388937393],[21.581866489353672,57.411870632549935],[24.12072960785343,57.02569265403277],[23.339795363058645,59.187240302153384],[29.117700000000013,60.02805000000012],[21.322244093519316,60.720169989659524],[21.536029493910803,63.18973501245587],[25.398067661243942,65.11142650009374],[23.903378533633802,66.00692739527962],[17.84777916837521,62.74940013289681],[18.78772179533209,60.081914374422595],[15.879785597403783,56.10430186626866],[12.942910597392057,55.36173737245058],[10.356556837616067,59.469807033925356],[5.665835402050419,58.5881554225937],[4.992078077828978,61.97099803328432],[19.18402835457846,69.81744415961778],[28.165547316202943,71.18547435168055],[41.059870000000046,67.45713000000012],[33.18444000000005,66.63252999999997],[37.01273000000009,63.84983000000011],[43.94975000000011,66.06908000000004],[43.45282000000003,68.57078999999999],[46.34915000000012,66.6676700000001],[60.55000000000001,69.85000000000002],[68.51216000000016,68.09233000000012],[66.69466000000006,71.02897000000019],[69.94,73.04000000000008],[72.79603000000003,72.22005999999999],[72.42301000000009,66.17267000000021],[75.05200000000008,67.76047000000011],[73.10109999999997,71.4471700000002],[74.65926000000007,72.83227000000005],[81.50000000000006,71.75000000000006],[80.51109000000002,73.64819999999997],[104.35160000000013,77.69792000000007],[114.13417000000004,75.84764000000001],[109.40000000000003,74.18000000000006],[126.97644000000003,73.56549000000012],[131.28858000000025,70.78699000000012],[140.46817,72.84941000000015],[180.0,68.96363636363651],[180.0,64.97970870219848],[177.41128000000003,64.60821000000004],[179.22825,62.304100000000176],[163.53929000000005,59.86871000000002],[162.1174900000001,54.855140000000006],[156.78979000000027,51.01105000000007],[155.9144200000003,56.767920000000174],[164.47355000000005,62.550610000000006],[156.72068000000002,61.434420000000046],[155.04375000000005,59.14495000000005],[142.1978200000001,59.03998000000013],[135.12618999999995,54.72959000000009],[141.37923,52.238770000000045],[138.21970999999996,46.307950000000005],[127.53343550019417,39.7568500839767],[129.0913765809296,35.082484239231434],[126.48574751190876,34.39004588473648],[125.32111575734682,39.55138458918421],[121.05455447803286,38.897471014962846],[121.64035851449353,40.94638987890333],[118.04274865119791,39.2042739934797],[122.35793745329849,37.45448415786072],[119.1512081238586,34.90985911716044],[121.68443851123851,28.225512600206617],[115.89073530483512,22.78287323657807],[105.88168216351903,19.752050482659698],[109.33526981001722,13.426028347217724],[105.15826378786511,8.599759629750494],[100.09779747925111,13.406856390837433],[99.22239871622676,9.239255479362427],[104.22881147666348,1.2930480004894918],[98.339661899817,7.794511623562386],[97.1645398294998,16.92873444260934],[94.18880415240454,16.037936102762018],[91.41708702999766,22.76501902922122],[80.32489586784388,15.89918488205835],[77.53989790233794,7.965534776232332],[72.6305334817454,21.356009426351008],[70.4704586119451,20.877330634031384],[66.37282758979327,25.42514089609385],[57.39725141788239,25.73990204518364],[56.492138706290206,27.143304755150197],[51.52076256694742,27.865689602158298],[50.115008579311585,30.147772528599717],[47.974519077349896,29.975819200148504],[51.79438927593287,24.019826158132506],[56.36201744977927,26.39593435312898],[59.806148309168066,22.310524807214193],[55.27490034365513,17.22835439703762],[43.48295861183713,12.636800035040084],[34.823243288783814,29.76108076171822],[33.92136,27.6487],[32.423230000000004,29.851080000000003],[42.715873650896526,11.735640570518342],[51.04531,10.6409],[39.20222,-4.67677],[40.08926395036522,-16.10077402106446],[34.78638349787005,-19.784011732667736],[35.45874555841962,-24.12260995859655],[25.780628289500697,-33.94464609144834],[18.377410922934615,-34.13652068454807],[15.21047244635946,-27.090955905874047],[11.64009606288161,-16.67314218512925],[13.236432732809874,-8.562629489784307],[8.79799563969317,-1.111301364754496],[8.500287713259695,4.7719829370268485],[-9.004793667018674,4.8324185245922]],[[50.39282107931268,40.25656118423912],[49.19961225769334,37.582874253889884],[53.82578982932642,36.965030829408235],[52.69397260926982,40.03362905533197],[54.73684533063215,40.95101491959346],[50.30564293803627,44.609835516938915],[53.042736850807785,46.85300608986449],[46.68201000000005,44.6092000000001],[50.39282107931268,40.25656118423912]]],[[[-67.91497046575694,70.12194753689765],[-68.8051228502006,68.72019847276444],[-61.851981370680605,66.86212067327783],[-63.918444383384184,64.9986685248329],[-68.015016038674,66.26272573512439],[-64.66940629744968,63.392926744227495],[-68.7831862046927,63.74567007105183],[-66.16556820338015,61.93089712182582],[-78.5559488593542,64.57290639918013],[-73.95979529488268,65.45476471624094],[-73.31161780464572,68.06943716091287],[-90.20516028518205,72.23507436796079],[-82.31559017610101,73.7509508328106],[-67.91497046575694,70.12194753689765]]],[[[-20.84539,82.72668999999999],[-31.900000000000002,82.2],[-12.20855,81.29154],[-20.04624,80.17708],[-17.73035,80.12912],[-19.70499,78.75128000000001],[-18.47285,76.98565],[-21.679440000000003,76.62795],[-19.37281,74.29561000000001],[-24.79296,72.3302],[-21.753560000000004,70.66369],[-26.36276,70.22646],[-22.349020000000003,70.12946000000001],[-39.81222,65.45848],[-43.3784,60.09772],[-51.63325,63.62691],[-53.96911,67.18899],[-50.87122,69.9291],[-54.68336,69.61003],[-51.39014,70.56978],[-55.83468,71.65444000000001],[-58.58516,75.51727],[-73.297,78.04419],[-60.28249,82.03363000000002],[-20.84539,82.72668999999999]]],[[[-91.58702000000001,81.89429000000001],[-72.83153,83.23324000000001],[-61.85,82.62860000000002],[-76.90773,79.32309000000001],[-75.39345,78.52581],[-80.56125,76.17812],[-89.49068,76.47239],[-84.97634,77.53873],[-87.96191999999999,78.37181],[-85.09495,79.34543000000001],[-86.93179,80.25145],[-81.84823,80.46442],[-91.58702000000001,81.89429000000001]]],[[[-179.99999999999994,-84.71337999999997],[-143.10771847860048,-85.04075204868394],[-153.58620113830017,-83.68868987419938],[-152.86151669005503,-82.04269215283858],[-156.83744971415953,-81.10212940869428],[-146.41774899619182,-80.33793832796204],[-155.32937639058574,-79.06426930126423],[-158.365134243788,-76.889207458655],[-144.9096239961858,-75.20403900161699],[-68.93591590033128,-73.00939259861343],[-67.25154842799373,-66.87617523205245],[-63.00139441593262,-64.6423080318279],[-57.811142747617566,-63.27066048950462],[-65.66508195663334,-67.95388722749948],[-60.827366909413456,-73.69524220799121],[-77.24037024667457,-76.71288747167517],[-73.6561187405195,-77.90811167415393],[-78.0237849596125,-79.18183318472825],[-58.22248714866089,-83.21843434034338],[-28.549802212018733,-80.33793832796204],[-35.77700965019869,-78.33924814876502],[-6.868231573911146,-70.93231007907394],[38.649403517416886,-69.77620493584016],[54.533550245996025,-65.81804860444396],[68.89003828316288,-67.93430185966076],[67.94988895047663,-71.85328745537964],[69.86930667509387,-72.26478688571984],[87.98628869014021,-66.20991099051338],[119.83292361865301,-67.26808929455399],[135.0707532085578,-65.30857065847846],[171.20679039945753,-71.69650115980608],[163.56823856023425,-76.24258026138676],[166.99578128485734,-78.75074757910522],[159.78821089094833,-80.945394789553],[180.0,-84.71337999999997],[180.0,-90.0],[-179.99999999999994,-90.0],[-179.99999999999994,-84.71337999999997]]],[[[49.194651320193316,-12.04055673589197],[47.095761346226595,-24.941629733990453],[44.03972049334976,-24.988345228782308],[44.4465173683514,-16.216219170804507],[49.194651320193316,-12.04055673589197]]],[[[118.99674726773816,0.9022191430660627],[114.86480309454456,-4.106984144714396],[110.223846063276,-2.9340324845534553],[108.9526575053282,0.41537547444431766],[117.12962609260047,6.92805288332454],[119.18190392463997,5.407835598162207],[117.3132324565335,3.234428208830593],[118.99674726773816,0.9022191430660627]]],[[[131.32633060112084,-31.49580331800104],[115.02680870977957,-34.19651702243893],[113.73655154831609,-22.47547535572538],[120.85622033089668,-19.683707777589206],[125.68579634003055,-14.23065561285385],[129.6214734233796,-14.969783623924522],[132.35722374891168,-11.128519382372696],[136.49247521377168,-11.857208754120398],[135.50018436090318,-14.997740573794424],[140.21524539607827,-17.710804945550066],[142.51526004452495,-10.668185723516686],[153.56946902894418,-28.11006682710208],[149.99728397033613,-37.42526051203518],[146.31792199115478,-39.03575652441141],[140.63857872941327,-38.019332777662555],[138.20756432510672,-34.38472258884593],[136.8294055523147,-35.26053476332861],[137.81032759007905,-32.90000701266812],[135.98904341038428,-34.89011809666046],[131.32633060112084,-31.49580331800104]]],[[[144.58397098203324,-3.861417738463416],[150.6905749859639,-10.582712904505925],[144.74416792213805,-7.630128269077446],[137.61447391169287,-8.41168263105974],[137.92783979711078,-5.393365573756],[130.5195581401801,-0.9377202286860893],[144.58397098203324,-3.861417738463416]]]]}}